NORAD_CAT_ID,OBJECT_NAME,OBJECT_TYPE,EPOCH,MEAN_MOTION,ECCENTRICITY,INCLINATION,RA_OF_ASC_NODE,ARG_OF_PERICENTER,MEAN_ANOMALY,BSTAR,MEAN_MOTION_DOT,MEAN_MOTION_DDOT,TLE_LINE0,TLE_LINE1,TLE_LINE2,SEMIMAJOR_AXIS,PERIOD,APOGEE,PERIGEE,DECAYED
56485.0,STARLINK-6210,PAYLOAD,2024-07-14 10:42:08,14.98335267,0.0003645,69.9988,205.2649,269.5072,90.5669,3.8282e-05,3.64e-06,0.0,0 STARLINK-6210,1 56485U 23064AP  24196.44593206  .00000364  00000-0  38282-4 0  9998,2 56485  69.9988 205.2649 0003645 269.5072  90.5669 14.98335267 65381,6950.177,96.107,574.575,569.508,0.0
56485.0,STARLINK-6210,PAYLOAD,2024-07-15 04:19:37,14.9832895,0.0003615,69.9989,203.4133,269.4007,90.6738,2.6586e-05,2.24e-06,0.0,0 STARLINK-6210,1 56485U 23064AP  24197.18029558  .00000224  00000-0  26586-4 0  9993,2 56485  69.9989 203.4133 0003615 269.4007  90.6738 14.98328950 65855,6950.196,96.107,574.574,569.549,0.0
56485.0,STARLINK-6210,PAYLOAD,2024-07-15 10:44:09,14.98330223,0.0003626,69.9989,202.7401,269.4852,90.5892,3.22e-05,2.91e-06,0.0,0 STARLINK-6210,1 56485U 23064AP  24197.44733467  .00000291  00000-0  32200-4 0  9997,2 56485  69.9989 202.7401 0003626 269.4852  90.5892 14.98330223 65536,6950.192,96.107,574.577,569.537,0.0
56485.0,STARLINK-6210,PAYLOAD,2024-07-15 17:08:41,14.98330433,0.0003626,69.999,202.0668,269.4771,90.5973,2.4984e-05,2.05e-06,0.0,0 STARLINK-6210,1 56485U 23064AP  24197.71437472  .00000205  00000-0  24984-4 0  9999,2 56485  69.9990 202.0668 0003626 269.4771  90.5973 14.98330433 65573,6950.192,96.107,574.577,569.536,0.0
56485.0,STARLINK-6210,PAYLOAD,2024-07-16 04:21:38,14.98331645,0.0003594,69.999,200.8887,269.2392,90.8356,-1.1563e-05,-2.31e-06,0.0,0 STARLINK-6210,1 56485U 23064AP  24198.18169441 -.00000231  00000-0 -11563-4 0  9999,2 56485  69.9990 200.8887 0003594 269.2392  90.8356 14.98331645 66006,6950.188,96.107,574.551,569.555,0.0
56485.0,STARLINK-6210,PAYLOAD,2024-07-16 10:46:10,14.98332632,0.0003559,69.9991,200.2156,268.6939,91.3812,8.7903e-06,1.2e-07,0.0,0 STARLINK-6210,1 56485U 23064AP  24198.44873286  .00000012  00000-0  87903-5 0  9994,2 56485  69.9991 200.2156 0003559 268.6939  91.3812 14.98332632 65684,6950.185,96.107,574.523,569.576,0.0
56485.0,STARLINK-6210,PAYLOAD,2024-07-17 05:59:47,14.98327159,0.000354,69.9992,198.1958,268.766,91.3094,4.0662e-06,-4.5e-07,0.0,0 STARLINK-6210,1 56485U 23064AP  24199.24985681 -.00000045  00000-0  40662-5 0  9994,2 56485  69.9992 198.1958 0003540 268.7660  91.3094 14.98327159 66166,6950.202,96.107,574.527,569.606,0.0
56485.0,STARLINK-6210,PAYLOAD,2024-07-17 10:48:11,14.98327854,0.0003531,69.9992,197.6908,269.1102,90.9653,1.161e-05,4.5e-07,0.0,0 STARLINK-6210,1 56485U 23064AP  24199.45013647  .00000045  00000-0  11610-4 0  9990,2 56485  69.9992 197.6908 0003531 269.1102  90.9653 14.98327854 65832,6950.2,96.107,574.519,569.61,0.0
56485.0,STARLINK-6210,PAYLOAD,2024-07-18 09:14:04,14.98331096,0.0003469,69.9994,195.3342,267.4029,92.6733,3.8268e-05,3.64e-06,0.0,0 STARLINK-6210,1 56485U 23064AP  24200.38477457  .00000364  00000-0  38268-4 0  9990,2 56485  69.9994 195.3342 0003469 267.4029  92.6733 14.98331096 65976,6950.19,96.107,574.466,569.643,0.0
56485.0,STARLINK-6210,PAYLOAD,2024-07-18 17:14:44,14.98330718,0.0003561,69.9992,194.4922,268.9774,91.0977,4.5529e-05,4.5e-06,0.0,0 STARLINK-6210,1 56485U 23064AP  24200.71857444  .00000450  00000-0  45529-4 0  9999,2 56485  69.9992 194.4922 0003561 268.9774  91.0977 14.98330718 66024,6950.191,96.107,574.531,569.581,0.0
56485.0,STARLINK-6210,PAYLOAD,2024-07-19 09:16:05,14.98332534,0.0003552,69.9993,192.8093,268.9376,91.1376,7.3692e-05,7.86e-06,0.0,0 STARLINK-6210,1 56485U 23064AP  24201.38617278  .00000786  00000-0  73692-4 0  9996,2 56485  69.9993 192.8093 0003552 268.9376  91.1376 14.98332534 66486,6950.185,96.107,574.519,569.581,0.0
56485.0,STARLINK-6210,PAYLOAD,2024-07-19 17:16:45,14.98331616,0.0003512,69.9994,191.9674,268.9417,91.134,5.6573e-05,5.82e-06,0.0,0 STARLINK-6210,1 56485U 23064AP  24201.71997309  .00000582  00000-0  56573-4 0  9992,2 56485  69.9994 191.9674 0003512 268.9417  91.1340 14.98331616 66171,6950.188,96.107,574.494,569.612,0.0
56485.0,STARLINK-6210,PAYLOAD,2024-07-20 09:18:06,14.98334272,0.0003492,69.9994,190.2844,268.8085,91.2674,5.545e-05,5.69e-06,0.0,0 STARLINK-6210,1 56485U 23064AP  24202.38757067  .00000569  00000-0  55450-4 0  9999,2 56485  69.9994 190.2844 0003492 268.8085  91.2674 14.98334272 66632,6950.18,96.107,574.472,569.618,0.0
56485.0,STARLINK-6210,PAYLOAD,2024-07-21 09:20:07,14.9833243,0.0003444,69.9994,187.7598,268.5265,91.55,2.9332e-05,2.57e-06,0.0,0 STARLINK-6210,1 56485U 23064AP  24203.38897136  .00000257  00000-0  29332-4 0  9996,2 56485  69.9994 187.7598 0003444 268.5265  91.5500 14.98332430 66784,6950.185,96.107,574.444,569.657,0.0
56485.0,STARLINK-6210,PAYLOAD,2024-07-22 09:22:07,14.98333517,0.0003339,69.9996,185.2352,268.4931,91.5846,3.7823e-05,3.58e-06,0.0,0 STARLINK-6210,1 56485U 23064AP  24204.39036971  .00000358  00000-0  37823-4 0  9996,2 56485  69.9996 185.2352 0003339 268.4931  91.5846 14.98333517 66936,6950.182,96.107,574.368,569.726,0.0
56485.0,STARLINK-6210,PAYLOAD,2024-07-23 07:48:00,14.98332869,0.0003229,69.9997,182.8794,267.0501,93.0288,5.7513e-05,5.93e-06,0.0,0 STARLINK-6210,1 56485U 23064AP  24205.32500908  .00000593  00000-0  57513-4 0  9995,2 56485  69.9997 182.8794 0003229 267.0501  93.0288 14.98332869 66718,6950.184,96.107,574.293,569.805,0.0
56485.0,STARLINK-6210,PAYLOAD,2024-07-23 22:13:13,14.98326043,0.0002981,70.0003,181.3645,264.8316,95.2503,8.4915e-07,-8.3e-07,0.0,0 STARLINK-6210,1 56485U 23064AP  24205.92585537 -.00000083  00000-0  84915-6 0  9995,2 56485  70.0003 181.3645 0002981 264.8316  95.2503 14.98326043 66802,6950.205,96.107,574.142,569.998,0.0
56485.0,STARLINK-6210,PAYLOAD,2024-07-24 04:37:46,14.98323529,0.0003071,70.0,180.6908,265.4242,94.6567,-3.4497e-05,-5.05e-06,0.0,0 STARLINK-6210,1 56485U 23064AP  24206.19289853 -.00000505  00000-0 -34497-4 0  9995,2 56485  70.0000 180.6908 0003071 265.4242  94.6567 14.98323529 67203,6950.213,96.107,574.212,569.943,0.0
56485.0,STARLINK-6210,PAYLOAD,2024-07-24 07:50:02,14.98325271,0.0003166,69.9997,180.3536,268.9451,91.1345,-2.0279e-05,-3.35e-06,0.0,0 STARLINK-6210,1 56485U 23064AP  24206.32641757 -.00000335  00000-0 -20279-4 0  9999,2 56485  69.9997 180.3536 0003166 268.9451  91.1345 14.98325271 66867,6950.208,96.107,574.273,569.872,0.0
56485.0,STARLINK-6210,PAYLOAD,2024-07-25 04:39:46,14.98334564,0.0003279,69.9993,178.1652,270.0788,89.9995,4.5271e-05,4.47e-06,0.0,0 STARLINK-6210,1 56485U 23064AP  24207.19428981  .00000447  00000-0  45271-4 0  9998,2 56485  69.9993 178.1652 0003279 270.0788  89.9995 14.98334564 67355,6950.179,96.107,574.323,569.765,0.0
56485.0,STARLINK-6210,PAYLOAD,2024-07-25 06:15:54,14.98336855,0.0003251,69.9994,177.997,269.8474,90.2313,7.2111e-05,7.68e-06,0.0,0 STARLINK-6210,1 56485U 23064AP  24207.26104740  .00000768  00000-0  72111-4 0  9999,2 56485  69.9994 177.9970 0003251 269.8474  90.2313 14.98336855 67000,6950.172,96.107,574.296,569.777,0.0
56485.0,STARLINK-6210,PAYLOAD,2024-07-25 22:17:15,14.98323659,0.0003152,69.9997,176.3139,269.2558,90.8239,4.1612e-05,4.03e-06,0.0,0 STARLINK-6210,1 56485U 23064AP  24207.92865587  .00000403  00000-0  41612-4 0  9993,2 56485  69.9997 176.3139 0003152 269.2558  90.8239 14.98323659 67102,6950.213,96.107,574.268,569.887,0.0
56485.0,STARLINK-6210,PAYLOAD,2024-07-26 04:41:48,14.98325999,0.0003117,69.9996,175.6405,268.5862,91.494,6.5319e-05,6.86e-06,0.0,0 STARLINK-6210,1 56485U 23064AP  24208.19569460  .00000686  00000-0  65319-4 0  9997,2 56485  69.9996 175.6405 0003117 268.5862  91.4940 14.98325999 67509,6950.205,96.107,574.237,569.904,0.0
56485.0,STARLINK-6210,PAYLOAD,2024-07-26 07:54:03,14.98329733,0.0003086,69.9997,175.304,268.5471,91.5335,0.00010418,1.15e-05,0.0,0 STARLINK-6210,1 56485U 23064AP  24208.32921126  .00001150  00000-0  10418-3 0  9999,2 56485  69.9997 175.3040 0003086 268.5471  91.5335 14.98329733 67164,6950.194,96.107,574.204,569.914,0.0
56485.0,STARLINK-6210,PAYLOAD,2024-07-27 04:43:48,14.98336858,0.0002991,70.0001,173.1165,270.7807,89.3009,3.3891e-05,3.11e-06,0.0,0 STARLINK-6210,1 56485U 23064AP  24209.19708668  .00000311  00000-0  33891-4 0  9998,2 56485  70.0001 173.1165 0002991 270.7807  89.3009 14.98336858 67652,6950.172,96.107,574.115,569.958,0.0
56485.0,STARLINK-6210,PAYLOAD,2024-07-27 06:19:56,14.98336433,0.0003001,70.0001,172.9482,270.7687,89.3129,2.7519e-05,2.35e-06,0.0,0 STARLINK-6210,1 56485U 23064AP  24209.26384682  .00000235  00000-0  27519-4 0  9997,2 56485  70.0001 172.9482 0003001 270.7687  89.3129 14.98336433 67304,6950.173,96.107,574.124,569.952,0.0
56485.0,STARLINK-6210,PAYLOAD,2024-07-27 07:56:04,14.98337351,0.0002994,70.0001,172.7799,270.824,89.2576,3.7881e-05,3.59e-06,0.0,0 STARLINK-6210,1 56485U 23064AP  24209.33060574  .00000359  00000-0  37881-4 0  9996,2 56485  70.0001 172.7799 0002994 270.8240  89.2576 14.98337351 67315,6950.17,96.107,574.116,569.954,0.0
56485.0,STARLINK-6210,PAYLOAD,2024-07-28 04:45:49,14.98326738,0.0002816,70.0003,170.5931,267.0911,92.9926,-1.5773e-05,-2.81e-06,0.0,0 STARLINK-6210,1 56485U 23064AP  24210.19849387 -.00000281  00000-0 -15773-4 0  9991,2 56485  70.0003 170.5931 0002816 267.0911  92.9926 14.98326738 67808,6950.203,96.107,574.025,570.111,0.0
56485.0,STARLINK-6210,PAYLOAD,2024-07-28 22:23:18,14.98328973,0.0002695,70.0009,168.7431,258.3973,101.6884,-5.6571e-06,-1.6e-06,0.0,0 STARLINK-6210,1 56485U 23064AP  24210.93285197 -.00000160  00000-0 -56571-5 0  9994,2 56485  70.0009 168.7431 0002695 258.3973 101.6884 14.98328973 67550,6950.196,96.107,573.934,570.188,0.0
56485.0,STARLINK-6210,PAYLOAD,2024-07-29 04:47:50,14.98329237,0.0002708,70.0009,168.0699,257.4398,102.6458,-1.0775e-06,-1.06e-06,0.0,0 STARLINK-6210,1 56485U 23064AP  24211.19989185 -.00000106  00000-0 -10775-5 0  9997,2 56485  70.0009 168.0699 0002708 257.4398 102.6458 14.98329237 67951,6950.195,96.107,573.942,570.178,0.0
